{"type": "FeatureCollection", "features": [{"type": "Feature", "properties": {"title": "Betoi", "fill": "#80336C", "family": "Betoi-Jirara", "cldf:languageReference": "beto1237", "fill-opacity": 0.5}, "geometry": {"type": "MultiPolygon", "coordinates": [[[[-71.29168555599995, 5.935983258000024], [-71.34493266299995, 5.991658015000043], [-71.46818372999996, 6.120506496000077], [-71.70351462899998, 6.403917401000048], [-71.70351462899998, 6.430900822000061], [-71.66730987499994, 6.516338844000069], [-71.65825868699994, 6.588275375000013], [-71.65825868699994, 6.655706402000011], [-71.68541225199994, 6.75458846700008], [-71.60395155599997, 6.808515640000057], [-71.38219743999997, 6.952291683000061], [-71.35956946899994, 7.028654874000031], [-71.38672303399994, 7.122968539000047], [-71.46365813599994, 7.199303501000021], [-71.53606764299997, 7.266647218000057], [-71.62458826599993, 7.307946377000063], [-71.69989415299996, 7.330928604000063], [-71.77809642099997, 7.351037081000069], [-71.87367697099994, 7.33954663400004], [-71.96925752099997, 7.33954663400004], [-72.00077013799994, 7.373902185000076], [-72.02301433899997, 7.410667714000063], [-72.06750273999995, 7.451106252000046], [-72.10828377499996, 7.486027441000033], [-72.13608902499993, 7.49154105700006], [-72.19355320999995, 7.497054604000027], [-72.16760164299995, 7.568724341000059], [-72.15091849299995, 7.634870452000028], [-72.14615257499996, 7.678067816000064], [-72.10086904099995, 7.730396744000075], [-72.03413643899994, 7.77631516800005], [-71.98373942199999, 7.781710253000027], [-71.92291543599997, 7.793188928000054], [-71.84181678799996, 7.787449630000023], [-71.75782175899997, 7.77884053600007], [-71.65934482899996, 7.770231265000061], [-71.56666065999997, 7.750142280000032], [-71.51162943399999, 7.730052337000065], [-71.41025612399994, 7.70709123100005], [-71.31467557399998, 7.698480495000068], [-71.20461312299994, 7.692739907000021], [-71.14378913699993, 7.692739907000021], [-71.09744705199995, 7.672647238000018], [-71.10551520899998, 7.636413740000025], [-71.10907428099993, 7.602313140000024], [-71.10551520899998, 7.535018581000025], [-71.06544269399994, 7.493199213000024], [-71.03380649699994, 7.482743743000066], [-70.97475226399995, 7.482743743000066], [-70.87984367399997, 7.489017055000033], [-70.73853532999993, 7.520382260000065], [-70.65839029899995, 7.512018427000045], [-70.60144514499994, 7.474379186000013], [-70.59722698599995, 7.428371266000047], [-70.60144514499994, 7.359350362000034], [-70.60144514499994, 7.315422370000013], [-70.60566330499994, 7.246383942000024], [-70.61199054399998, 7.131296435000023], [-70.61831778299994, 7.011993407000038], [-70.62886318199998, 6.938721985000019], [-70.63097226199994, 6.873814911000066], [-70.63729950099996, 6.787956469000045], [-70.63940858099994, 6.699988039000057], [-70.64573581999997, 6.645523426000072], [-70.64784489999994, 6.586862482000067], [-70.65206305999999, 6.536576150000021], [-70.65628121899992, 6.494667008000021], [-70.66682661799996, 6.461137181000021], [-70.70479005399994, 6.43179675900006], [-70.75540796799999, 6.358438310000045], [-70.82711667999996, 6.255718922000025], [-70.86508011599994, 6.194916283000051], [-70.89460723299999, 6.161366997000072], [-70.94100698799997, 6.108941995000071], [-71.02747925799996, 6.069095558000076], [-71.09918796999995, 6.058609163000019], [-71.19409655899996, 6.046025220000036], [-71.25104171299994, 6.014564083000036], [-71.29168555599995, 5.935983258000024]]]]}}, {"type": "Feature", "properties": {"title": "Chan\u00e9", "fill": "#CC5151", "family": "Arawakan", "cldf:languageReference": "chan1322", "fill-opacity": 0.5}, "geometry": {"type": "MultiPolygon", "coordinates": [[[[-61.830425859999934, -19.342348668999936], [-61.817322491999946, -19.412394961999947], [-61.799851333999975, -19.54416490599994], [-61.80421912399997, -19.733395726999966], [-61.86016734899993, -19.85643629799995], [-61.956216051999945, -19.96029126399998], [-62.03785744999992, -20.082120760999942], [-62.15791832899998, -20.221882340999965], [-62.162720763999964, -20.284959390999976], [-62.239559726999964, -20.460538537999987], [-62.31639868899998, -20.613443982999968], [-62.39323765199998, -20.698824417999962], [-62.41724982799995, -20.743742200999982], [-62.508496096, -20.74823324599993], [-62.62855697499998, -20.716793128999953], [-62.69595119999996, -20.652451571999958], [-62.695791066999966, -20.559494815999983], [-62.619943327, -20.399924198999948], [-62.568799313999925, -20.35751310199994], [-62.57470054599998, -20.31140086799997], [-62.56093100399993, -20.209905622999948], [-62.55896392699997, -20.11757973999994], [-62.53929315199997, -20.03443981899995], [-62.48928635499992, -19.888051545999932], [-62.46527417999992, -19.797705553999954], [-62.35962060599995, -19.616859830999946], [-62.239559726999964, -19.512781211999936], [-62.14351102399995, -19.404105963999942], [-62.04265988499998, -19.331615413999945], [-61.980228228, -19.268159773999972], [-61.887207120999946, -19.268149228999956], [-61.830425859999934, -19.342348668999936]]], [[[-58.74239879799995, -19.897762317999938], [-58.74676658799995, -19.815600260999926], [-58.711824272999934, -19.71694973599995], [-58.59826174999995, -19.618238300999966], [-58.48906701699996, -19.51534939399995], [-58.41044680899995, -19.445347491999936], [-58.23136744599997, -19.36295364599993], [-58.07849481899996, -19.301130912999948], [-57.95182892799994, -19.26402605199997], [-57.85136977299998, -19.22691278999998], [-57.746542828999964, -19.18566599799994], [-57.65045146399996, -19.119649641999956], [-57.58930241299997, -19.049478361999952], [-57.54999230899995, -19.008187264999957], [-57.45390094399994, -19.037092110999936], [-57.35780957799993, -19.037092110999936], [-57.32286726399997, -18.97927739499995], [-57.28792494899994, -18.94623139999994], [-57.178730214999966, -18.913178859999967], [-57.05206432499995, -18.842920529999965], [-57.012754220999966, -18.78917372099994], [-56.91666285499996, -18.727136852999937], [-56.838042646999945, -18.673353138999982], [-56.72011233499995, -18.627830508999974], [-56.632756547999975, -18.60713437199997], [-56.532297392999965, -18.59057564999996], [-56.541032971999975, -18.437331313999948], [-56.593446443999945, -18.38760103099997], [-56.64585991599995, -18.321271665999976], [-56.74631907099995, -18.29224456499998], [-56.83367485799994, -18.267360322999934], [-56.91666285499996, -18.21343223199996], [-56.99528306299993, -18.134584210999943], [-57.03896095699997, -18.117980092999975], [-57.14815568999995, -18.105525969999977], [-57.309763895999936, -18.068158294999936], [-57.38401631399995, -18.03078266799998], [-57.43642978599996, -17.993399101999962], [-57.43642978599996, -17.939386633999955], [-57.440797575999966, -17.89782735799998], [-57.39275189299997, -17.881200919999976], [-57.38856659499997, -17.83030035699995], [-57.29441727399995, -17.82451786999997], [-57.11522985699997, -17.760898132999962], [-57.088044844999956, -17.774630859999952], [-57.04339024399996, -17.74737044999995], [-57.019345458999965, -17.710289630999977], [-57.00560558199999, -17.695018828999938], [-56.951791062999966, -17.69283717999997], [-56.903701492999964, -17.716833861999923], [-56.86820680999995, -17.744098920999935], [-56.836147095999934, -17.753913326999967], [-56.734243006999975, -17.763454593999942], [-56.639423541999975, -17.79582295599995], [-56.56428358799996, -17.806043324999955], [-56.503456006999954, -17.836700917999963], [-56.428316052999946, -17.87416414199993], [-56.357760531999986, -17.920769282999974], [-56.35216976099997, -17.981933220999963], [-56.307443597999956, -18.05902276499995], [-56.23196819899994, -18.093569179999978], [-56.181651264999964, -18.12013871699998], [-56.08660816899999, -18.11482513199998], [-55.99715584399996, -18.117481944999952], [-55.921680443999946, -18.162641587999932], [-55.918885058999926, -18.229031613999958], [-55.93565736999994, -18.300704393999982], [-55.932861984999924, -18.414788699999974], [-55.932861984999924, -18.486384427999962], [-55.91608967399997, -18.55530020699996], [-55.87136351099997, -18.61889008699995], [-55.83781888899994, -18.703639608999946], [-55.809865036999945, -18.804224559], [-55.78470656999997, -18.87301123299995], [-55.77072964499996, -18.96292044599993], [-55.765138873999945, -19.052781205999963], [-55.78191118499995, -19.105617765999973], [-55.82943273299997, -19.06070776399998], [-55.927271213999965, -19.03164186699997], [-56.00554199899994, -19.07391785199997], [-56.10338048099993, -19.147874866999928], [-56.19597761499994, -19.243408608999978], [-56.305172347999985, -19.35471196699996], [-56.41873487099996, -19.38767618099997], [-56.501722867999945, -19.383556018999965], [-56.60654981199997, -19.371194907999946], [-56.72448012399996, -19.342348668999936], [-56.82493927899997, -19.334105949999984], [-56.90355948699994, -19.28464090199999], [-56.951605169999944, -19.23928480999997], [-57.13068453299996, -19.222788575999974], [-57.23551147699993, -19.206290686999978], [-57.23987926599994, -19.27227230299997], [-57.22240810899996, -19.31349733099995], [-57.26608600199995, -19.38767618099997], [-57.318499473999964, -19.437109985999932], [-57.39275189299997, -19.46593942699997], [-57.480107679999946, -19.445347491999936], [-57.63734809599998, -19.478293331999964], [-57.76401398699993, -19.46593942699997], [-57.85136977299998, -19.478293331999964], [-57.986771242999964, -19.507115446999926], [-58.026081346999945, -19.568859822], [-58.095965975999945, -19.61412400699993], [-58.17021839499995, -19.62235248999997], [-58.24447081399995, -19.651148864999982], [-58.27941312799998, -19.700502053999976], [-58.33182659999994, -19.76217213599995], [-58.349297757999956, -19.83614476299995], [-58.31872323199996, -19.901869302999952], [-58.419182386999985, -19.947039102999963], [-58.53274490999995, -19.988091345999973], [-58.63320406499998, -19.975776794999955], [-58.74239879799995, -19.897762317999938]]], [[[-64.10037154099996, -18.503156610999955], [-63.796367464999946, -18.524249623999943], [-63.618413859999976, -18.51018790499996], [-63.48494865599996, -18.482061], [-63.29958031699993, -18.390616710999954], [-63.136456178999936, -18.34839526699995], [-62.980746773999954, -18.41172355499998], [-62.87694050499994, -18.46096279099994], [-62.96472743699995, -18.518456659999963], [-63.05117126999993, -18.59585324099993], [-63.12320779699997, -18.668664965999945], [-63.14241753799997, -18.73689757899997], [-63.24807111099994, -18.791463836999984], [-63.339317378999944, -18.85055733399997], [-63.32971250899994, -18.914173219999952], [-63.42095877699995, -18.932344746999945], [-63.46898312899997, -18.94597209499994], [-63.483390433999936, -19.000470354999955], [-63.50260017499993, -19.054950771999934], [-63.58424157299998, -19.109413301999954], [-63.709104886999974, -19.086722757999954], [-63.785943849999974, -19.045871943999934], [-63.896399857999924, -19.06402910399994], [-63.93481933999993, -19.154785047999958], [-64.01646073799996, -19.145711695999985], [-64.05007778399994, -19.100337457999956], [-64.09329969999993, -19.01863247899997], [-64.16053379199997, -18.968681868999983], [-64.21336057899997, -18.914173219999952], [-64.25658249599996, -18.882368296999974], [-64.27098980099997, -18.809648662999965], [-64.30940928299997, -18.750540797999975], [-64.31901415299994, -18.68686301899993], [-64.37664337499996, -18.63681367599998], [-64.44387746699994, -18.645914653999977], [-64.51111155899997, -18.67321466199997], [-64.57354321699994, -18.68686301899993], [-64.58232922099995, -18.622649244999938], [-64.49432630799997, -18.504874044999955], [-64.45627875099996, -18.453929478999957], [-64.33764301399998, -18.503156610999955], [-64.10037154099996, -18.503156610999955]]]]}}, {"type": "Feature", "properties": {"title": "Kinikinao", "fill": "#CC5151", "family": "Arawakan", "cldf:languageReference": "guan1270", "fill-opacity": 0.5}, "geometry": {"type": "MultiPolygon", "coordinates": [[[[-59.38009604099994, -20.986407802999956], [-59.39756719899999, -20.892583150999947], [-59.415038355999975, -20.827279203999968], [-59.345153726999975, -20.778282648999962], [-59.29710804399996, -20.82319676499998], [-59.231591204, -20.84768973299998], [-59.10929310299998, -20.83952585399993], [-59.05251184099995, -20.87217871499996], [-58.97389163299994, -20.94970081199994], [-58.917110371999975, -21.043489638], [-58.838490163999936, -21.145367054999955], [-58.76423774499993, -21.271597783999926], [-58.65504301099998, -21.320432277999945], [-58.58515838199998, -21.279737992999976], [-58.458492490999944, -21.218675457999943], [-58.40171122999993, -21.186098432999934], [-58.22699965599997, -21.19831565899996], [-58.06975923999994, -21.255316015999938], [-57.995506820999935, -21.291947461999943], [-57.93435777099994, -21.31636335699994], [-57.84700198399996, -21.348911568999938], [-57.78148514399998, -21.324501086999934], [-57.69412935699995, -21.304155916999946], [-57.60677356999997, -21.31636335699994], [-57.53688894099997, -21.32856978299998], [-57.458268732999954, -21.32856978299998], [-57.37091294599996, -21.33670683599997], [-57.28355716, -21.33670683599997], [-57.231143686999985, -21.352979588], [-57.187465793999934, -21.38145255599995], [-57.20930474099998, -21.43431622499998], [-57.23551147699993, -21.495288979999945], [-57.301028316999975, -21.527797341999932], [-57.40585526099994, -21.564360553999965], [-57.501946625999935, -21.59279223499994], [-57.567463465999936, -21.572484460999934], [-57.67229041099995, -21.556236191999982], [-57.76401398699993, -21.568422563999953], [-57.855737562999934, -21.572484460999934], [-57.943093348999966, -21.60091454699994], [-57.925622191999935, -21.641519266999985], [-57.88194429899994, -21.71052108699996], [-57.925622191999935, -21.755151705999943], [-58.07412702999994, -21.763264874999955], [-58.174586183999956, -21.807879099999987], [-58.288148706999934, -21.83626273699998], [-58.358033335999934, -21.848425428999967], [-58.46286028099996, -21.901118459999964], [-58.50653817399994, -21.953792015999973], [-58.53274490999995, -22.010495560999978], [-58.57205501399994, -22.038838832999943], [-58.64630743299995, -22.071224195999946], [-58.73803100899994, -22.11978832299996], [-58.75986995599993, -22.059080553999944], [-58.78607669199994, -22.006446058999924], [-58.82975458499993, -21.969995339999972], [-58.86032910999994, -21.876801016999934], [-58.92147816099999, -21.807879099999987], [-58.93458152899994, -21.747038078999942], [-58.93458152899994, -21.69428833699993], [-58.93458152899994, -21.62527874799997], [-58.97389163299994, -21.515607557999953], [-58.99136279, -21.43431622499998], [-59.04377626199992, -21.36111528599997], [-59.100557523999946, -21.320432277999945], [-59.161706575, -21.243103507999944], [-59.32331477999998, -21.16980722699997], [-59.39756719899999, -21.141293300999966], [-59.36262488399996, -21.06387070899996], [-59.38009604099994, -20.986407802999956]]], [[[-57.21191842599995, -22.10138124799995], [-57.21191842599995, -22.098066035999985], [-57.09026326299993, -22.010184563999932], [-57.06700565799997, -21.98032561399998], [-57.00617807699996, -21.917269432999937], [-57.00438902999996, -21.835918923999944], [-57.00908527799998, -21.73811255999993], [-56.97833604099998, -21.71993524299996], [-56.90845141099998, -21.691366247999955], [-56.84136216699994, -21.61861960799996], [-56.78265907799993, -21.493825932999986], [-56.735137529999975, -21.394954940999977], [-56.788249848999946, -21.210043245999934], [-56.726751374999935, -21.07446776299997], [-56.72011233499995, -20.941542478999967], [-56.70700896699998, -20.84768973299998], [-56.698273387999954, -20.77011500999992], [-56.71574454599993, -20.68841435199994], [-56.77689359599998, -20.606669674999985], [-56.82057148999996, -20.516699858999967], [-56.890456118999964, -20.414397230999956], [-56.97781190599994, -20.291544302999977], [-56.93850180199996, -20.22598285499993], [-56.87735275099994, -20.127588856999974], [-56.81620369999996, -20.053752679999945], [-56.76815801799995, -19.971671730999958], [-56.64149212699993, -19.914189618999952], [-56.593446443999945, -19.83614476299995], [-56.50609065699995, -19.725172942999972], [-56.36632139899996, -19.667601616999953], [-56.244023296999956, -19.67171454099998], [-56.10862182799997, -19.667601616999953], [-55.99069151599997, -19.737506959999966], [-55.95522506599996, -19.83565172599998], [-55.96920199199997, -19.904004892999975], [-55.99156507399993, -19.998599000999953], [-56.06704047299997, -20.116761729999943], [-56.120152791999935, -20.182369177999927], [-56.10897125099995, -20.213850952999966], [-56.04419693499994, -20.211893775999958], [-55.83945680999994, -20.199084415999955], [-55.79850878499997, -20.282326397999952], [-55.75756075999993, -20.41669978899995], [-55.75756075999993, -20.512609063999943], [-55.85993082199997, -20.455070687999978], [-56.01007358099997, -20.512609063999943], [-56.15339166799998, -20.59568188699996], [-56.14656699799997, -20.68509433099997], [-56.139742326999965, -20.844628329999985], [-56.19433969399994, -21.035846016999976], [-56.20116436399996, -21.15045908999998], [-56.22846304799997, -21.309496796999944], [-56.18751502299994, -21.436603163999965], [-56.12609298499996, -21.531860375999944], [-56.07149561799997, -21.70950659399995], [-56.22846304799997, -21.74754519399994], [-56.283060413999976, -21.85526648799993], [-56.37178113499993, -21.97556480599997], [-56.42637850199998, -22.095761285999973], [-56.53557323499995, -22.209537296999947], [-56.651592639999926, -22.24744216999995], [-56.79491072699994, -22.29165155999992], [-56.92457947299994, -22.26007484899998], [-57.12249492799998, -22.22849101399993], [-57.23168966099996, -22.24744216999995], [-57.21121564899993, -22.17794207899994], [-57.21191842599995, -22.10138124799995]]]]}}, {"type": "Feature", "properties": {"title": "M\u00fara", "fill": "#3C8033", "family": "Pirah\u00e3", "cldf:languageReference": "mura1273", "fill-opacity": 0.5}, "geometry": {"type": "MultiPolygon", "coordinates": [[[[-63.05117126999993, -7.575285581999937], [-63.137615101999984, -7.532438757999955], [-63.137615101999984, -7.470541426999945], [-63.18083701899995, -7.427684287999975], [-63.24807111099994, -7.408635326999971], [-63.30089789799996, -7.337194406999973], [-63.34411981499993, -7.222865118999946], [-63.32010763899996, -7.118037854999968], [-63.209651629999925, -7.060849228999929], [-63.16642971299996, -6.975053047999956], [-63.190441888999935, -6.832024572999962], [-63.24807111099994, -6.603090373999976], [-63.21925649999996, -6.507669650999961], [-63.16642971299996, -6.440864341999943], [-63.18083701899995, -6.354958890999963], [-63.09919562099997, -6.202202785999932], [-62.96472743699995, -6.035075142999975], [-62.916703084999924, -5.824898845999948], [-62.763025159999984, -5.758007935999959], [-62.64296428099992, -5.657656831999936], [-62.537310706999946, -5.614643866999939], [-62.455669308999965, -5.499927171999962], [-62.292386513999986, -5.409094077999961], [-62.133906152999934, -5.337374096999955], [-61.98983309799995, -5.289556109999982], [-61.764118646, -5.20347444199997], [-61.62484802599993, -5.146080107999977], [-61.455905579999985, -5.022977126999939], [-61.431985917999945, -5.050566628999944], [-61.36022693299997, -5.08066292799998], [-61.214191102999955, -5.106996037999988], [-61.08703921699997, -5.120789139999953], [-60.960911363999955, -5.252793517999974], [-60.81833906999998, -5.230376237999969], [-60.69827819099998, -5.312568978999936], [-60.73579721599997, -5.394750758999986], [-60.84085048499997, -5.559080758999935], [-60.930896144999956, -5.626293525999934], [-61.17852170799995, -5.700965265999979], [-61.37362063599995, -5.812954621999956], [-61.41864346599992, -5.87267319599994], [-61.62875000399998, -5.880137568999945], [-61.726299468999976, -5.87267319599994], [-61.83135273799995, -5.902530085999953], [-61.973925031999954, -5.977165256999971], [-62.018947860999965, -6.044328212999973], [-61.95141361699994, -6.156247903999941], [-61.87637556799995, -6.193549249999941], [-61.793833712999955, -6.23830738499994], [-61.898886981999965, -6.32781216299998], [-62.116497325999944, -6.335270196999955], [-62.30409244899994, -6.335270196999955], [-62.30409244899994, -6.454584009999971], [-62.34161147399993, -6.588778431999971], [-62.371626693999985, -6.737840746999954], [-62.55922181699999, -6.782550555999931], [-62.60424464699997, -6.85705766999996], [-62.776832160999966, -6.961348030999937], [-62.91940445499994, -7.177303960999962], [-62.956923478999954, -7.355948763999955], [-62.98693869899995, -7.541960640999949], [-63.05117126999993, -7.575285581999937]]], [[[-61.388628245999946, -6.312895769999959], [-61.276071171999945, -6.260685020999972], [-61.02094180399997, -6.20846905099995], [-60.93839994999995, -6.126404940999982], [-60.855858094999974, -6.059252186], [-60.87836950999996, -5.932385367999925], [-60.75830863099998, -5.827884861999959], [-60.668262971999965, -5.730831248999943], [-60.673965862999964, -5.54294854899996], [-60.592324465999965, -5.428217975999924], [-60.592324465999965, -5.323029090999975], [-60.55870741899998, -5.213039656999968], [-60.61153420599998, -5.05997891499994], [-60.61153420599998, -4.988219159999979], [-60.60673177099995, -4.897312221999925], [-60.61633664099998, -4.796821761999982], [-60.649953686999936, -4.658024967999948], [-60.68327058099999, -4.557499792999981], [-60.84085048499997, -4.490175948999942], [-61.02094180399997, -4.475214246999951], [-60.930896144999956, -4.355509712999941], [-60.80333146099998, -4.22081936599995], [-60.73579721599997, -4.116044011999983], [-60.668262971999965, -3.981312626999974], [-60.60072872699992, -3.906452280999922], [-60.49567545799994, -3.794149277999956], [-60.42063740799995, -3.659366439999933], [-60.38311838399994, -3.547031883999983], [-60.30057652899996, -3.404721900999955], [-60.268993584999976, -3.335071217999948], [-60.10766491799996, -3.326594578999957], [-60.031246075999945, -3.258778861999938], [-59.94668508199999, -3.280766222999948], [-59.92209661399994, -3.314519383999948], [-59.91902305599996, -3.40349944099996], [-59.88214035299996, -3.458724321999973], [-59.82066918299995, -3.461792276999978], [-59.68235905099992, -3.458724321999973], [-59.63932923199996, -3.458724321999973], [-59.52868112499992, -3.434180324999947], [-59.39651810999993, -3.41270380899994], [-59.35041473199993, -3.400431298999929], [-59.32582626399993, -3.351339700999974], [-59.19505412199997, -3.269629685999981], [-59.080935317999945, -3.23165128899996], [-59.01029034299996, -3.226225687999955], [-58.95051382699996, -3.275055053999942], [-58.84726347999997, -3.323882038999952], [-58.77661850599997, -3.367281775999968], [-58.846144593999945, -3.462464771999968], [-58.905314284, -3.466234658999945], [-58.93301073399994, -3.520268045999956], [-58.93678752299996, -3.580580680999959], [-58.99847507099996, -3.611991941999983], [-59.05386797199997, -3.642145730999972], [-59.09690762699996, -3.668058335999948], [-59.106743013999946, -3.750502510999985], [-59.06150023299995, -3.768168113999937], [-59.083138083999984, -3.823125465999981], [-59.106743013999946, -3.882004433999954], [-59.185426111999966, -3.936954433999982], [-59.27394459599997, -3.954616165999934], [-59.325796757999974, -3.97879250499995], [-59.33885815199994, -4.015448129999926], [-59.35262769399997, -4.060578596999958], [-59.379930728999966, -4.152087559999924], [-59.39377895399997, -4.213610791999939], [-59.42021647499996, -4.255042066999978], [-59.47686830599996, -4.277640005999971], [-59.52848441799994, -4.261319338999956], [-59.56625230499998, -4.270107433999947], [-59.575064810999955, -4.305258803999939], [-59.57884159999997, -4.35288317999994], [-59.616216072, -4.378380991999956], [-59.65359054299994, -4.350921773999978], [-59.688997936999954, -4.329345971999944], [-59.73620779599997, -4.333268890999946], [-59.79718719599998, -4.366612878999944], [-59.81685797099992, -4.423490373999937], [-59.83849582299996, -4.48428562299995], [-59.90077380199993, -4.600583750999934], [-59.91518110699997, -4.744177979999963], [-59.89116893199998, -4.868602189999947], [-59.88156406099994, -4.978650596999949], [-60.011229810999964, -4.969081895999989], [-60.08806877299996, -4.973866263999985], [-60.14089555999993, -5.026492012999934], [-60.18891991199995, -5.074329914999968], [-60.28977104999995, -5.174777925999939], [-60.357005141999934, -5.213039656999968], [-60.36661001299995, -5.327810796999935], [-60.37621488299993, -5.428217975999924], [-60.25135156899994, -5.432998855999935], [-60.14089555999993, -5.437779696999947], [-60.00162493999993, -5.418656102999933], [-59.95360058899996, -5.370844472999981], [-59.95360058899996, -5.284774106999978], [-60.00162493999993, -5.213039656999968], [-60.02563711599998, -5.169995045999944], [-59.97761276499995, -5.112597684], [-59.94879815399998, -5.05997891499994], [-59.89116893199998, -5.036059874999975], [-59.833539709999975, -5.103030955999953], [-59.74709587699994, -5.20347444199997], [-59.79512022799996, -5.337374096999955], [-59.87676162599996, -5.547728508999976], [-59.91518110699997, -5.643319530999977], [-59.939193282999945, -5.74845144599994], [-59.919983542999944, -5.815343486999958], [-59.963205458999944, -5.920443448999957], [-59.99202006999997, -6.054178080999974], [-60.05925416199993, -6.245169961999971], [-60.16010530099998, -6.378822962999946], [-60.275363744999936, -6.445636441999969], [-60.34740027199995, -6.450408497999946], [-60.34740027199995, -6.636483294999952], [-60.41463436399994, -6.731879126999969], [-60.50107819699997, -6.836792882999935], [-60.60673177099995, -6.970286130999972], [-60.697978038999956, -7.089444429999969], [-60.904482750999925, -7.260978116999979], [-61.02934606499997, -7.403872957999968], [-61.18302399099997, -7.403872957999968], [-61.30788730499994, -7.384822968999972], [-61.38472626799996, -7.284797101999972], [-61.461565229999955, -7.275269659999943], [-61.552811498, -7.246686120999922], [-61.62484802599993, -7.165689601999934], [-61.69208211799997, -7.127568601999936], [-61.792933256999945, -7.118037854999968], [-61.87457465399994, -7.084678685999963], [-61.91779657099993, -7.046550964999937], [-62.004240403999965, -6.979819916999926], [-62.02825257999994, -6.865401742999953], [-62.02345014399998, -6.77957003099994], [-61.927401440999965, -6.727109778999945], [-61.86977221899996, -6.646023714999957], [-61.84095760799993, -6.579236907999933], [-61.73050159899998, -6.512441119999947], [-61.740106469999944, -6.436092195999951], [-61.69628424899997, -6.387473414999937], [-61.606238589999975, -6.312895769999959], [-61.388628245999946, -6.312895769999959]]], [[[-64.25316181599999, -3.923100882999971], [-64.09240525199993, -4.034125656999959], [-63.91928279999996, -4.151302006999973], [-63.81417273899994, -4.182135018999936], [-63.554489058999934, -4.206800553999928], [-63.387549550999935, -4.249963359999984], [-63.23915887699995, -4.274626736999961], [-62.99802403199992, -4.262295146999989], [-62.93619458499994, -4.385602048999952], [-62.800169799999935, -4.447247903999931], [-62.924963272999946, -4.525711749999969], [-62.98643444399993, -4.593116050999915], [-63.001802235999946, -4.657450578999939], [-62.93725750699997, -4.718716088999946], [-62.87885989599994, -4.810604192999967], [-62.76206467299995, -4.899417575999965], [-62.761824550999954, -5.013634975999945], [-62.806847380999955, -5.17059290799995], [-62.98693869899995, -5.148172700999972], [-63.24206806699993, -4.99868461599994], [-63.51220504499996, -4.871592874999981], [-63.669784948999954, -4.80429924399995], [-63.834868657999934, -4.759433126999975], [-64.05998280599994, -4.744477102999952], [-64.21005890499998, -4.632296665999957], [-64.36013500399997, -4.550019675999973], [-64.49520349299995, -4.557499792999981], [-64.57774534699996, -4.579939677999969], [-64.75783666599995, -4.579939677999969], [-64.84037851999994, -4.527578856999977], [-64.87039373999994, -4.430327312999963], [-64.75033286099995, -4.333062975999952], [-64.72782144599995, -4.17591735399998], [-64.69030242099996, -4.071136045999944], [-64.73532525099995, -3.928911091999978], [-64.59275295699996, -3.794149277999956], [-64.50047960599994, -3.744196776999964], [-64.34590598699998, -3.867582936999953], [-64.25316181599999, -3.923100882999971]]]]}}, {"type": "Feature", "properties": {"title": "Nahuku\u00e1", "fill": "#51CCCC", "family": "Cariban", "cldf:languageReference": "nahu1343", "fill-opacity": 0.5}, "geometry": {"type": "MultiPolygon", "coordinates": [[[[-52.72074345099997, -12.667619869999958], [-52.68687210899998, -12.67397495799998], [-52.64648704699993, -12.679058913999945], [-52.61912942499998, -12.707018855999934], [-52.594377290999944, -12.726080688999966], [-52.578744363999924, -12.743870441999947], [-52.550083997999934, -12.737517101999982], [-52.518818143999965, -12.737517101999982], [-52.50579070499998, -12.757847228999943], [-52.50839619299995, -12.780716667999966], [-52.51230442399998, -12.815016944999973], [-52.49406600999998, -12.842961865999946], [-52.471919362999984, -12.850582668999946], [-52.47713033899998, -12.867093615999979], [-52.479735826999956, -12.88995313199997], [-52.51621265599994, -12.888683213999979], [-52.58134985199995, -12.892492949999973], [-52.613918449999964, -12.907731312999948], [-52.63736783999996, -12.924238491999978], [-52.65690899899993, -12.95598], [-52.668633693999936, -12.982639739999973], [-52.68947759699995, -12.97883138099997], [-52.74289009699998, -12.959788708999959], [-52.78848613399998, -12.94963202099996], [-52.840595890999964, -12.94836240599995], [-52.88358643999993, -12.94836240599995], [-52.93178796499995, -12.959788708999959], [-52.96956753799997, -12.962327815999977], [-52.99171418499997, -12.962327815999977], [-53.02298003899995, -12.964866896999979], [-53.05294314899999, -12.964866896999979], [-53.09984192999996, -12.966136427999976], [-53.123499882999965, -12.983806847999977], [-53.16263527499995, -12.910250217999945], [-53.20177066799994, -12.853024530999965], [-53.224133748999975, -12.77397714799997], [-53.16888735699996, -12.774364253999986], [-53.08290625899996, -12.773093751999966], [-53.04121845299994, -12.773093751999966], [-52.97217302599995, -12.765470604999967], [-52.91485229399995, -12.755306051999979], [-52.83147668299994, -12.742599786999955], [-52.776761438999976, -12.717185344999969], [-52.73507363399995, -12.689226520999963], [-52.72074345099997, -12.667619869999958]]]]}}, {"type": "Feature", "properties": {"title": "Nuclear Betoi-Jirara", "fill": "#80336C", "family": "Betoi-Jirara", "cldf:languageReference": "nucl1771", "fill-opacity": 0.5}, "geometry": {"type": "MultiPolygon", "coordinates": [[[[-71.29168555599995, 5.935983258000024], [-71.34493266299995, 5.991658015000043], [-71.46818372999996, 6.120506496000077], [-71.70351462899998, 6.403917401000048], [-71.70351462899998, 6.430900822000061], [-71.66730987499994, 6.516338844000069], [-71.65825868699994, 6.588275375000013], [-71.65825868699994, 6.655706402000011], [-71.68541225199994, 6.75458846700008], [-71.60395155599997, 6.808515640000057], [-71.38219743999997, 6.952291683000061], [-71.35956946899994, 7.028654874000031], [-71.38672303399994, 7.122968539000047], [-71.46365813599994, 7.199303501000021], [-71.53606764299997, 7.266647218000057], [-71.62458826599993, 7.307946377000063], [-71.69989415299996, 7.330928604000063], [-71.77809642099997, 7.351037081000069], [-71.87367697099994, 7.33954663400004], [-71.96925752099997, 7.33954663400004], [-72.00077013799994, 7.373902185000076], [-72.02301433899997, 7.410667714000063], [-72.06750273999995, 7.451106252000046], [-72.10828377499996, 7.486027441000033], [-72.13608902499993, 7.49154105700006], [-72.19355320999995, 7.497054604000027], [-72.16760164299995, 7.568724341000059], [-72.15091849299995, 7.634870452000028], [-72.14615257499996, 7.678067816000064], [-72.10086904099995, 7.730396744000075], [-72.03413643899994, 7.77631516800005], [-71.98373942199999, 7.781710253000027], [-71.92291543599997, 7.793188928000054], [-71.84181678799996, 7.787449630000023], [-71.75782175899997, 7.77884053600007], [-71.65934482899996, 7.770231265000061], [-71.56666065999997, 7.750142280000032], [-71.51162943399999, 7.730052337000065], [-71.41025612399994, 7.70709123100005], [-71.31467557399998, 7.698480495000068], [-71.20461312299994, 7.692739907000021], [-71.14378913699993, 7.692739907000021], [-71.09744705199995, 7.672647238000018], [-71.10551520899998, 7.636413740000025], [-71.10907428099993, 7.602313140000024], [-71.10551520899998, 7.535018581000025], [-71.06544269399994, 7.493199213000024], [-71.03380649699994, 7.482743743000066], [-70.97475226399995, 7.482743743000066], [-70.87984367399997, 7.489017055000033], [-70.73853532999993, 7.520382260000065], [-70.65839029899995, 7.512018427000045], [-70.60144514499994, 7.474379186000013], [-70.59722698599995, 7.428371266000047], [-70.60144514499994, 7.359350362000034], [-70.60144514499994, 7.315422370000013], [-70.60566330499994, 7.246383942000024], [-70.61199054399998, 7.131296435000023], [-70.61831778299994, 7.011993407000038], [-70.62886318199998, 6.938721985000019], [-70.63097226199994, 6.873814911000066], [-70.63729950099996, 6.787956469000045], [-70.63940858099994, 6.699988039000057], [-70.64573581999997, 6.645523426000072], [-70.64784489999994, 6.586862482000067], [-70.65206305999999, 6.536576150000021], [-70.65628121899992, 6.494667008000021], [-70.66682661799996, 6.461137181000021], [-70.70479005399994, 6.43179675900006], [-70.75540796799999, 6.358438310000045], [-70.82711667999996, 6.255718922000025], [-70.86508011599994, 6.194916283000051], [-70.89460723299999, 6.161366997000072], [-70.94100698799997, 6.108941995000071], [-71.02747925799996, 6.069095558000076], [-71.09918796999995, 6.058609163000019], [-71.19409655899996, 6.046025220000036], [-71.25104171299994, 6.014564083000036], [-71.29168555599995, 5.935983258000024]]]]}}, {"type": "Feature", "properties": {"title": "Paiconeca", "fill": "#CC5151", "family": "Arawakan", "cldf:languageReference": "paic1240", "fill-opacity": 0.5}, "geometry": {"type": "MultiPolygon", "coordinates": [[[[-60.14445917499996, -15.959099593999959], [-60.15740303999996, -16.006384950999983], [-60.16629812199995, -16.038873174999935], [-60.22744717299996, -16.15218069199994], [-60.29296401299996, -16.164766418999942], [-60.31480295999996, -16.236070391999945], [-60.223079383999966, -16.240263938999934], [-60.16193033299999, -16.345073525999965], [-60.14445917499996, -16.43307016199997], [-60.170665911999954, -16.51683944299998], [-60.218711593999956, -16.588014794999943], [-60.279860644999985, -16.634055410999967], [-60.34537748499997, -16.680084976999982], [-60.41526211399997, -16.75956448399995], [-60.41526211399997, -16.818107102999928], [-60.472043375999974, -16.87663164599997], [-60.480778953999945, -16.960206672999952], [-60.56376695199998, -17.02286356399997], [-60.61618042399993, -17.072973980999976], [-60.707904, -17.135593074999978], [-60.79962757599996, -17.17315441099993], [-60.86951220499998, -17.227396237999933], [-60.94376462399998, -17.29830383299998], [-61.03112041099996, -17.32749314399996], [-61.11847619799993, -17.34833981199996], [-61.16270006499997, -17.369444648999945], [-61.25142078599998, -17.258682361999945], [-61.29236881099996, -17.076105435999978], [-61.060330001999944, -16.978222672999944], [-60.90336257299998, -16.919468479999985], [-60.794167838999954, -16.867227136999933], [-60.67814843499997, -16.769235713999937], [-60.69862244799998, -16.64504074499996], [-60.78051849799994, -16.533850646999955], [-60.82829119399997, -16.44223418999996], [-60.937485926999955, -16.265423347999956], [-61.019381976999966, -16.127793565999987], [-60.99208329399993, -16.035987185999936], [-60.98525862299993, -15.93757627299993], [-61.01255730599996, -15.858812758999939], [-61.114927368999986, -15.786585836999967], [-61.15587539399996, -15.635482821999974], [-61.25142078599998, -15.609192615999978], [-61.36744018999997, -15.582899039999976], [-61.503933606999965, -15.628910585999972], [-61.66090103599997, -15.648626658999945], [-61.85199181999997, -15.707763464999982], [-61.875899997999966, -15.78929184099996], [-61.88425636399996, -15.784855339999982], [-61.959005305999945, -15.799997964999932], [-61.976709002999925, -15.830279815999983], [-62.04555671399998, -15.866233619999946], [-62.10456903699998, -15.885154100999953], [-62.17538382499998, -15.890829898999987], [-62.22456076099996, -15.90218101399995], [-62.32291463299998, -15.91731483699994], [-62.399630653999964, -15.91731483699994], [-62.44487343499998, -15.915423170999935], [-62.48814913899997, -15.907856330999955], [-62.533391919999985, -15.898397379999953], [-62.568799313999925, -15.877586121999972], [-62.568799313999925, -15.839741963999929], [-62.57470054599998, -15.788641101999936], [-62.54211314199995, -15.74682373399997], [-62.450866873999985, -15.765311696999966], [-62.35001573599992, -15.77455504699998], [-62.25876946699998, -15.751445881999926], [-62.11949884799998, -15.635860688999971], [-62.04746231999996, -15.552598893], [-62.004240403999965, -15.529464630999943], [-62.01864770899993, -15.464674896999956], [-62.085881801999946, -15.404494844999926], [-62.10028910699998, -15.284082538999938], [-62.14351102399995, -15.149694897999957], [-62.210745115999934, -15.089424400999974], [-62.22995485599995, -14.99202827299996], [-62.19452477899995, -14.95853547599995], [-62.11904937899993, -14.923424054999936], [-62.06314167599997, -14.882903750999969], [-62.001643201999975, -14.855885981999965], [-61.945735497999976, -14.79373229599997], [-61.81786846499995, -14.937667660999983], [-61.70184906099996, -15.10904412399998], [-61.57900498599997, -15.181508004999966], [-61.449336239999965, -15.227608445999985], [-61.27189479799995, -15.267115075999987], [-61.16270006499997, -15.365849090999966], [-61.02620664799997, -15.45795867899995], [-60.937485926999955, -15.556602097999935], [-60.90336257299998, -15.701193555999964], [-60.787343168999946, -15.760315110999956], [-60.51435633499994, -15.825985538999936], [-60.33691489299997, -15.885070689999965], [-60.14445917499996, -15.959099593999959]]]]}}], "properties": {"title": "Speaker areas for dialects", "description": "Speaker areas aggregated for Glottolog dialect-level languoids, color-coded by family."}}